[{"OBJECT_NAME":"IRIS","OBJECT_ID":"2013-033A","EPOCH":"2026-03-09T13:26:21.239520","MEAN_MOTION":14.85645982,"ECCENTRICITY":0.00232612,"INCLINATION":97.9395,"RA_OF_ASC_NODE":268.1167,"ARG_OF_PERICENTER":285.8728,"MEAN_ANOMALY":73.9923,"EPHEMERIS_TYPE":0,"CLASSIFICATION_TYPE":"U","NORAD_CAT_ID":39197,"ELEMENT_SET_NO":999,"REV_AT_EPOCH":68558,"BSTAR":0.00024024039,"MEAN_MOTION_DOT":2.035e-5,"MEAN_MOTION_DDOT":0},{"OBJECT_NAME":"PSLV R\/B","OBJECT_ID":"2014-034F","EPOCH":"2026-03-09T13:14:51.880704","MEAN_MOTION":14.84143321,"ECCENTRICITY":0.00191696,"INCLINATION":98.3003,"RA_OF_ASC_NODE":286.336,"ARG_OF_PERICENTER":298.7666,"MEAN_ANOMALY":61.1621,"EPHEMERIS_TYPE":0,"CLASSIFICATION_TYPE":"U","NORAD_CAT_ID":40058,"ELEMENT_SET_NO":999,"REV_AT_EPOCH":63129,"BSTAR":0.00014545883,"MEAN_MOTION_DOT":1.159e-5,"MEAN_MOTION_DDOT":0}]
